start=new Date('2021-10-14T00:00:00.000Z').valueOf();
sats=[{"SITE":"AFETR","TLE_LINE2":"2 47805  53.0542 250.5656 0001256  67.9872 292.1250 15.06409367 34501","GP_ID":"187100995","EPHEMERIS_TYPE":"0","INCLINATION":"53.0542","OBJECT_NAME":"STARLINK-2386","TIME_SYSTEM":"UTC","REV_AT_EPOCH":"3450","PERIOD":"95.592","ECCENTRICITY":"0.00012560","PERIAPSIS":"546.315","RCS_SIZE":"MEDIUM","CLASSIFICATION_TYPE":"U","COUNTRY_CODE":"US","FILE":"3161149","NORAD_CAT_ID":"47805","OBJECT_ID":"2021-018U","DECAY_DATE":null,"MEAN_ELEMENT_THEORY":"SGP4","SEMIMAJOR_AXIS":"6925.320","CENTER_NAME":"EARTH","ARG_OF_PERICENTER":"67.9872","ELEMENT_SET_NO":"999","MEAN_MOTION":"15.06409367","MEAN_ANOMALY":"292.1250","TLE_LINE1":"1 47805U 21018U   21286.60746183  .00002755  00000-0  20375-3 0  9999","LAUNCH_DATE":"2021-03-11","MEAN_MOTION_DDOT":"0.0000000000000","RA_OF_ASC_NODE":"250.5656","OBJECT_TYPE":"PAYLOAD","REF_FRAME":"TEME","APOAPSIS":"548.055","EPOCH":"2021-10-13T14:34:44.702112","MEAN_MOTION_DOT":"0.00002755","BSTAR":"0.00020375000000"},{"GP_ID":"187101245","TLE_LINE2":"2 47806  53.0557 263.9745 0001532  69.7915 290.3239 15.06404737 34402","SITE":"AFETR","INCLINATION":"53.0557","EPHEMERIS_TYPE":"0","PERIOD":"95.592","ECCENTRICITY":"0.00015320","PERIAPSIS":"546.138","REV_AT_EPOCH":"3440","OBJECT_NAME":"STARLINK-2387","TIME_SYSTEM":"UTC","NORAD_CAT_ID":"47806","COUNTRY_CODE":"US","FILE":"3161149","RCS_SIZE":"LARGE","CLASSIFICATION_TYPE":"U","DECAY_DATE":null,"OBJECT_ID":"2021-018V","ELEMENT_SET_NO":"999","MEAN_ELEMENT_THEORY":"SGP4","SEMIMAJOR_AXIS":"6925.334","ARG_OF_PERICENTER":"69.7915","CENTER_NAME":"EARTH","LAUNCH_DATE":"2021-03-11","MEAN_ANOMALY":"290.3239","TLE_LINE1":"1 47806U 21018V   21286.96546687  .00000282  00000-0  37837-4 0  9991","MEAN_MOTION":"15.06404737","MEAN_MOTION_DOT":"0.00000282","BSTAR":"0.00003783700000","EPOCH":"2021-10-13T23:10:16.337568","REF_FRAME":"TEME","APOAPSIS":"548.260","MEAN_MOTION_DDOT":"0.0000000000000","OBJECT_TYPE":"PAYLOAD","RA_OF_ASC_NODE":"263.9745"},{"BSTAR":"0.00006026600000","MEAN_MOTION_DOT":"0.00000616","EPOCH":"2021-10-13T07:00:57.701664","APOAPSIS":"548.221","REF_FRAME":"TEME","RA_OF_ASC_NODE":"242.0270","OBJECT_TYPE":"PAYLOAD","MEAN_MOTION_DDOT":"0.0000000000000","LAUNCH_DATE":"2021-03-11","TLE_LINE1":"1 47807U 21018W   21286.29233451  .00000616  00000-0  60266-4 0  9993","MEAN_ANOMALY":"295.7025","MEAN_MOTION":"15.06407610","ELEMENT_SET_NO":"999","SEMIMAJOR_AXIS":"6925.325","CENTER_NAME":"EARTH","ARG_OF_PERICENTER":"64.4117","MEAN_ELEMENT_THEORY":"SGP4","DECAY_DATE":null,"OBJECT_ID":"2021-018W","NORAD_CAT_ID":"47807","FILE":"3160689","COUNTRY_CODE":"US","CLASSIFICATION_TYPE":"U","RCS_SIZE":"LARGE","ECCENTRICITY":"0.00014890","PERIAPSIS":"546.159","PERIOD":"95.592","REV_AT_EPOCH":"3458","TIME_SYSTEM":"UTC","OBJECT_NAME":"STARLINK-2388","INCLINATION":"53.0465","EPHEMERIS_TYPE":"0","GP_ID":"187069356","TLE_LINE2":"2 47807  53.0465 242.0270 0001489  64.4117 295.7025 15.06407610 34583","SITE":"AFETR"},{"CLASSIFICATION_TYPE":"U","RCS_SIZE":"LARGE","FILE":"3161149","COUNTRY_CODE":"US","NORAD_CAT_ID":"47808","OBJECT_NAME":"STARLINK-2389","TIME_SYSTEM":"UTC","REV_AT_EPOCH":"3435","PERIAPSIS":"546.194","ECCENTRICITY":"0.00015220","PERIOD":"95.593","EPHEMERIS_TYPE":"0","INCLINATION":"53.0552","SITE":"AFETR","TLE_LINE2":"2 47808  53.0552 265.3746 0001522  75.9459 284.1699 15.06388841 34359","GP_ID":"187102244","RA_OF_ASC_NODE":"265.3746","OBJECT_TYPE":"PAYLOAD","MEAN_MOTION_DDOT":"0.0000000000000","APOAPSIS":"548.302","REF_FRAME":"TEME","EPOCH":"2021-10-13T15:39:07.468992","BSTAR":"0.00001053200000","MEAN_MOTION_DOT":"-0.00000125","MEAN_MOTION":"15.06388841","TLE_LINE1":"1 47808U 21018X   21286.65216978 -.00000125  00000-0  10532-4 0  9996","MEAN_ANOMALY":"284.1699","LAUNCH_DATE":"2021-03-11","SEMIMAJOR_AXIS":"6925.383","CENTER_NAME":"EARTH","ARG_OF_PERICENTER":"75.9459","MEAN_ELEMENT_THEORY":"SGP4","ELEMENT_SET_NO":"999","OBJECT_ID":"2021-018X","DECAY_DATE":null},{"PERIOD":"95.593","PERIAPSIS":"546.169","ECCENTRICITY":"0.00015640","REV_AT_EPOCH":"3428","TIME_SYSTEM":"UTC","OBJECT_NAME":"STARLINK-2390","NORAD_CAT_ID":"47809","COUNTRY_CODE":"US","FILE":"3161149","RCS_SIZE":"LARGE","CLASSIFICATION_TYPE":"U","GP_ID":"187100496","TLE_LINE2":"2 47809  53.0529 270.3377 0001564  59.1317 300.9825 15.06387388 34288","SITE":"AFETR","INCLINATION":"53.0529","EPHEMERIS_TYPE":"0","LAUNCH_DATE":"2021-03-11","TLE_LINE1":"1 47809U 21018Y   21286.65818148  .00003867  00000-0  27842-3 0  9990","MEAN_ANOMALY":"300.9825","MEAN_MOTION":"15.06387388","MEAN_MOTION_DOT":"0.00003867","BSTAR":"0.00027842000000","EPOCH":"2021-10-13T15:47:46.879872","REF_FRAME":"TEME","APOAPSIS":"548.335","MEAN_MOTION_DDOT":"0.0000000000000","RA_OF_ASC_NODE":"270.3377","OBJECT_TYPE":"PAYLOAD","DECAY_DATE":null,"OBJECT_ID":"2021-018Y","ELEMENT_SET_NO":"999","MEAN_ELEMENT_THEORY":"SGP4","SEMIMAJOR_AXIS":"6925.387","ARG_OF_PERICENTER":"59.1317","CENTER_NAME":"EARTH"},{"CLASSIFICATION_TYPE":"U","RCS_SIZE":"LARGE","NORAD_CAT_ID":"47810","FILE":"3161149","COUNTRY_CODE":"US","REV_AT_EPOCH":"3414","TIME_SYSTEM":"UTC","OBJECT_NAME":"STARLINK-2391","PERIAPSIS":"546.019","ECCENTRICITY":"0.00017370","PERIOD":"95.592","INCLINATION":"53.0550","EPHEMERIS_TYPE":"0","TLE_LINE2":"2 47810  53.0550 280.2502 0001737  74.0902 286.0279 15.06397329 34140","SITE":"AFETR","GP_ID":"187100746","APOAPSIS":"548.425","REF_FRAME":"TEME","OBJECT_TYPE":"PAYLOAD","RA_OF_ASC_NODE":"280.2502","MEAN_MOTION_DDOT":"0.0000000000000","BSTAR":"0.00002651600000","MEAN_MOTION_DOT":"0.00000113","EPOCH":"2021-10-13T16:23:35.902752","MEAN_MOTION":"15.06397329","LAUNCH_DATE":"2021-03-11","MEAN_ANOMALY":"286.0279","TLE_LINE1":"1 47810U 21018Z   21286.68305443  .00000113  00000-0  26516-4 0  9993","SEMIMAJOR_AXIS":"6925.357","CENTER_NAME":"EARTH","ARG_OF_PERICENTER":"74.0902","MEAN_ELEMENT_THEORY":"SGP4","ELEMENT_SET_NO":"999","DECAY_DATE":null,"OBJECT_ID":"2021-018Z"},{"DECAY_DATE":null,"OBJECT_ID":"2021-018AA","ELEMENT_SET_NO":"999","MEAN_ELEMENT_THEORY":"SGP4","CENTER_NAME":"EARTH","SEMIMAJOR_AXIS":"6925.343","ARG_OF_PERICENTER":"78.8908","LAUNCH_DATE":"2021-03-11","MEAN_ANOMALY":"281.2255","TLE_LINE1":"1 47811U 21018AA  21286.19190391  .00000305  00000-0  39384-4 0  9994","MEAN_MOTION":"15.06401713","MEAN_MOTION_DOT":"0.00000305","BSTAR":"0.00003938400000","EPOCH":"2021-10-13T04:36:20.497824","REF_FRAME":"TEME","APOAPSIS":"548.280","MEAN_MOTION_DDOT":"0.0000000000000","RA_OF_ASC_NODE":"252.4347","OBJECT_TYPE":"PAYLOAD","GP_ID":"187068857","TLE_LINE2":"2 47811  53.0557 252.4347 0001548  78.8908 281.2255 15.06401713 34496","SITE":"AFETR","INCLINATION":"53.0557","EPHEMERIS_TYPE":"0","PERIOD":"95.592","PERIAPSIS":"546.136","ECCENTRICITY":"0.00015480","REV_AT_EPOCH":"3449","TIME_SYSTEM":"UTC","OBJECT_NAME":"STARLINK-2392","NORAD_CAT_ID":"47811","COUNTRY_CODE":"US","FILE":"3160689","RCS_SIZE":"LARGE","CLASSIFICATION_TYPE":"U"},{"NORAD_CAT_ID":"47812","COUNTRY_CODE":"US","FILE":"3161149","RCS_SIZE":"LARGE","CLASSIFICATION_TYPE":"U","PERIOD":"95.592","PERIAPSIS":"546.149","ECCENTRICITY":"0.00015390","REV_AT_EPOCH":"3408","OBJECT_NAME":"STARLINK-2393","TIME_SYSTEM":"UTC","INCLINATION":"53.0540","EPHEMERIS_TYPE":"0","GP_ID":"187101745","TLE_LINE2":"2 47812  53.0540 280.1790 0001539  71.1060 289.0096 15.06399521 34081","SITE":"AFETR","MEAN_MOTION_DOT":"0.00001440","BSTAR":"0.00011558000000","EPOCH":"2021-10-13T16:39:31.033152","REF_FRAME":"TEME","APOAPSIS":"548.281","MEAN_MOTION_DDOT":"0.0000000000000","RA_OF_ASC_NODE":"280.1790","OBJECT_TYPE":"PAYLOAD","LAUNCH_DATE":"2021-03-11","TLE_LINE1":"1 47812U 21018AB  21286.69410918  .00001440  00000-0  11558-3 0  9993","MEAN_ANOMALY":"289.0096","MEAN_MOTION":"15.06399521","ELEMENT_SET_NO":"999","MEAN_ELEMENT_THEORY":"SGP4","SEMIMAJOR_AXIS":"6925.350","ARG_OF_PERICENTER":"71.1060","CENTER_NAME":"EARTH","DECAY_DATE":null,"OBJECT_ID":"2021-018AB"},{"TLE_LINE2":"2 47813  53.0565 250.5555 0001373  61.1676 298.9450 15.06398146 34554","SITE":"AFETR","GP_ID":"187100996","INCLINATION":"53.0565","EPHEMERIS_TYPE":"0","REV_AT_EPOCH":"3455","TIME_SYSTEM":"UTC","OBJECT_NAME":"STARLINK-2394","PERIOD":"95.592","ECCENTRICITY":"0.00013730","PERIAPSIS":"546.268","RCS_SIZE":"LARGE","CLASSIFICATION_TYPE":"U","NORAD_CAT_ID":"47813","COUNTRY_CODE":"US","FILE":"3161149","DECAY_DATE":null,"OBJECT_ID":"2021-018AC","MEAN_ELEMENT_THEORY":"SGP4","SEMIMAJOR_AXIS":"6925.354","CENTER_NAME":"EARTH","ARG_OF_PERICENTER":"61.1676","ELEMENT_SET_NO":"999","MEAN_MOTION":"15.06398146","LAUNCH_DATE":"2021-03-11","MEAN_ANOMALY":"298.9450","TLE_LINE1":"1 47813U 21018AC  21286.61210272  .00000553  00000-0  56034-4 0  9990","REF_FRAME":"TEME","APOAPSIS":"548.170","MEAN_MOTION_DDOT":"0.0000000000000","RA_OF_ASC_NODE":"250.5555","OBJECT_TYPE":"PAYLOAD","MEAN_MOTION_DOT":"0.00000553","BSTAR":"0.00005603400000","EPOCH":"2021-10-13T14:41:25.675008"},{"ELEMENT_SET_NO":"999","SEMIMAJOR_AXIS":"6925.329","CENTER_NAME":"EARTH","ARG_OF_PERICENTER":"72.5978","MEAN_ELEMENT_THEORY":"SGP4","OBJECT_ID":"2021-018AD","DECAY_DATE":null,"EPOCH":"2021-10-13T05:42:41.648256","BSTAR":"0.00015930000000","MEAN_MOTION_DOT":"0.00002092","OBJECT_TYPE":"PAYLOAD","RA_OF_ASC_NODE":"272.2431","MEAN_MOTION_DDOT":"0.0000000000000","APOAPSIS":"548.281","REF_FRAME":"TEME","TLE_LINE1":"1 47814U 21018AD  21286.23798204  .00002092  00000-0  15930-3 0  9994","MEAN_ANOMALY":"287.5183","LAUNCH_DATE":"2021-03-11","MEAN_MOTION":"15.06406262","EPHEMERIS_TYPE":"0","INCLINATION":"53.0540","GP_ID":"187068605","SITE":"AFETR","TLE_LINE2":"2 47814  53.0540 272.2431 0001569  72.5978 287.5183 15.06406262 34220","FILE":"3160689","COUNTRY_CODE":"US","NORAD_CAT_ID":"47814","CLASSIFICATION_TYPE":"U","RCS_SIZE":"MEDIUM","ECCENTRICITY":"0.00015690","PERIAPSIS":"546.108","PERIOD":"95.592","OBJECT_NAME":"STARLINK-2395","TIME_SYSTEM":"UTC","REV_AT_EPOCH":"3422"}];
